{
  "type": "FeatureCollection",
  "features": [
    {
      "type": "Feature",
      "properties": {
        "norad_id": 31095,
        "name": "FENGYUN 1C DEB",
        "group": "fengyun-1c-debris",
        "lat": -60.88248538765857,
        "lon": -61.827816393533894,
        "alt_km": 1061.7879299204042,
        "timestamp": "2025-12-18T13:51:49.964478+00:00",
        "meta_object_name": "FENGYUN 1C DEB",
        "meta_object_id": "1999-025BGR",
        "meta_epoch": "2025-12-17T03:34:34.916736",
        "meta_mean_motion": 13.06670581,
        "meta_eccentricity": 0.05000721,
        "meta_inclination": 98.5625,
        "meta_ra_of_asc_node": 132.7204,
        "meta_arg_of_pericenter": 181.3173,
        "meta_mean_anomaly": 178.6655,
        "meta_ephemeris_type": 0,
        "meta_classification_type": "U",
        "meta_norad_cat_id": 31095,
        "meta_element_set_no": 999,
        "meta_rev_at_epoch": 89505,
        "meta_bstar": 0.0005656824,
        "meta_mean_motion_dot": 3.13e-06,
        "meta_mean_motion_ddot": 0,
        "tle_line1": "1 31095U 99025BGR 25351.14901524  .00000313  00000+0  56568-3 0  9994",
        "tle_line2": "2 31095  98.5625 132.7204 0500072 181.3173 178.6655 13.06670581895054"
      },
      "geometry": {
        "type": "Point",
        "coordinates": [
          -61.827816393533894,
          -60.88248538765857
        ]
      }
    },
    {
      "type": "Feature",
      "properties": {
        "norad_id": 31097,
        "name": "FENGYUN 1C DEB",
        "group": "fengyun-1c-debris",
        "lat": -71.62453888216639,
        "lon": -92.38033998338712,
        "alt_km": 731.4424495896646,
        "timestamp": "2025-12-18T13:51:49.964491+00:00",
        "meta_object_name": "FENGYUN 1C DEB",
        "meta_object_id": "1999-025BGT",
        "meta_epoch": "2025-12-17T14:03:42.624000",
        "meta_mean_motion": 14.47080395,
        "meta_eccentricity": 0.00154261,
        "meta_inclination": 98.8591,
        "meta_ra_of_asc_node": 114.5858,
        "meta_arg_of_pericenter": 256.8277,
        "meta_mean_anomaly": 233.4008,
        "meta_ephemeris_type": 0,
        "meta_classification_type": "U",
        "meta_norad_cat_id": 31097,
        "meta_element_set_no": 999,
        "meta_rev_at_epoch": 97108,
        "meta_bstar": 0.0020918687,
        "meta_mean_motion_dot": 7.591e-05,
        "meta_mean_motion_ddot": 0,
        "tle_line1": "1 31097U 99025BGT 25351.58591000  .00007591  00000+0  20919-2 0  9993",
        "tle_line2": "2 31097  98.8591 114.5858 0015426 256.8277 233.4008 14.47080395971085"
      },
      "geometry": {
        "type": "Point",
        "coordinates": [
          -92.38033998338712,
          -71.62453888216639
        ]
      }
    },
    {
      "type": "Feature",
      "properties": {
        "norad_id": 31098,
        "name": "FENGYUN 1C DEB",
        "group": "fengyun-1c-debris",
        "lat": -36.64139817271858,
        "lon": -75.81879038278618,
        "alt_km": 716.2397811693781,
        "timestamp": "2025-12-18T13:51:49.964503+00:00",
        "meta_object_name": "FENGYUN 1C DEB",
        "meta_object_id": "1999-025BGU",
        "meta_epoch": "2025-12-17T18:40:09.833376",
        "meta_mean_motion": 14.51639804,
        "meta_eccentricity": 0.00151145,
        "meta_inclination": 98.8697,
        "meta_ra_of_asc_node": 110.0074,
        "meta_arg_of_pericenter": 235.3042,
        "meta_mean_anomaly": 124.6728,
        "meta_ephemeris_type": 0,
        "meta_classification_type": "U",
        "meta_norad_cat_id": 31098,
        "meta_element_set_no": 999,
        "meta_rev_at_epoch": 97030,
        "meta_bstar": 0.0023349237,
        "meta_mean_motion_dot": 9.336e-05,
        "meta_mean_motion_ddot": 0,
        "tle_line1": "1 31098U 99025BGU 25351.77789159  .00009336  00000+0  23349-2 0  9998",
        "tle_line2": "2 31098  98.8697 110.0074 0015114 235.3042 124.6728 14.51639804970304"
      },
      "geometry": {
        "type": "Point",
        "coordinates": [
          -75.81879038278618,
          -36.64139817271858
        ]
      }
    },
    {
      "type": "Feature",
      "properties": {
        "norad_id": 31099,
        "name": "FENGYUN 1C DEB",
        "group": "fengyun-1c-debris",
        "lat": -80.52258298560156,
        "lon": -5.324049389820227,
        "alt_km": 761.1362327821871,
        "timestamp": "2025-12-18T13:51:49.964518+00:00",
        "meta_object_name": "FENGYUN 1C DEB",
        "meta_object_id": "1999-025BGV",
        "meta_epoch": "2025-12-18T04:55:12.394848",
        "meta_mean_motion": 14.27930025,
        "meta_eccentricity": 0.00625317,
        "meta_inclination": 98.9382,
        "meta_ra_of_asc_node": 244.813,
        "meta_arg_of_pericenter": 265.339,
        "meta_mean_anomaly": 246.892,
        "meta_ephemeris_type": 0,
        "meta_classification_type": "U",
        "meta_norad_cat_id": 31099,
        "meta_element_set_no": 999,
        "meta_rev_at_epoch": 97549,
        "meta_bstar": 0.00024317483,
        "meta_mean_motion_dot": 5.68e-06,
        "meta_mean_motion_ddot": 0,
        "tle_line1": "1 31099U 99025BGV 25352.20500457  .00000568  00000+0  24317-3 0  9995",
        "tle_line2": "2 31099  98.9382 244.8130 0062531 265.3390 246.8920 14.27930025975498"
      },
      "geometry": {
        "type": "Point",
        "coordinates": [
          -5.324049389820227,
          -80.52258298560156
        ]
      }
    },
    {
      "type": "Feature",
      "properties": {
        "norad_id": 31146,
        "name": "FENGYUN 1C DEB",
        "group": "fengyun-1c-debris",
        "lat": 58.00902279461446,
        "lon": 118.31929060153149,
        "alt_km": 659.8432889421647,
        "timestamp": "2025-12-18T13:51:49.964529+00:00",
        "meta_object_name": "FENGYUN 1C DEB",
        "meta_object_id": "1999-025BGY",
        "meta_epoch": "2025-12-17T01:58:43.283424",
        "meta_mean_motion": 14.27713578,
        "meta_eccentricity": 0.02127861,
        "meta_inclination": 99.0421,
        "meta_ra_of_asc_node": 282.0022,
        "meta_arg_of_pericenter": 154.4434,
        "meta_mean_anomaly": 206.7451,
        "meta_ephemeris_type": 0,
        "meta_classification_type": "U",
        "meta_norad_cat_id": 31146,
        "meta_element_set_no": 999,
        "meta_rev_at_epoch": 96827,
        "meta_bstar": 0.00027932804,
        "meta_mean_motion_dot": 8.25e-06,
        "meta_mean_motion_ddot": 0,
        "tle_line1": "1 31146U 99025BGY 25351.08244541  .00000825  00000+0  27933-3 0  9995",
        "tle_line2": "2 31146  99.0421 282.0022 0212786 154.4434 206.7451 14.27713578968271"
      },
      "geometry": {
        "type": "Point",
        "coordinates": [
          118.31929060153149,
          58.00902279461446
        ]
      }
    },
    {
      "type": "Feature",
      "properties": {
        "norad_id": 31148,
        "name": "FENGYUN 1C DEB",
        "group": "fengyun-1c-debris",
        "lat": -75.22740222620519,
        "lon": 22.089503983423782,
        "alt_km": 823.2626982276533,
        "timestamp": "2025-12-18T13:51:49.964540+00:00",
        "meta_object_name": "FENGYUN 1C DEB",
        "meta_object_id": "1999-025BHA",
        "meta_epoch": "2025-12-17T03:23:48.030432",
        "meta_mean_motion": 14.43384812,
        "meta_eccentricity": 0.01367919,
        "meta_inclination": 98.8663,
        "meta_ra_of_asc_node": 236.8896,
        "meta_arg_of_pericenter": 37.7158,
        "meta_mean_anomaly": 323.3525,
        "meta_ephemeris_type": 0,
        "meta_classification_type": "U",
        "meta_norad_cat_id": 31148,
        "meta_element_set_no": 999,
        "meta_rev_at_epoch": 97594,
        "meta_bstar": 0.00067377616,
        "meta_mean_motion_dot": 2.495e-05,
        "meta_mean_motion_ddot": 0,
        "tle_line1": "1 31148U 99025BHA 25351.14152813  .00002495  00000+0  67378-3 0  9996",
        "tle_line2": "2 31148  98.8663 236.8896 0136791  37.7158 323.3525 14.43384812975944"
      },
      "geometry": {
        "type": "Point",
        "coordinates": [
          22.089503983423782,
          -75.22740222620519
        ]
      }
    },
    {
      "type": "Feature",
      "properties": {
        "norad_id": 31150,
        "name": "FENGYUN 1C DEB",
        "group": "fengyun-1c-debris",
        "lat": 81.10360198953293,
        "lon": -76.50780525277663,
        "alt_km": 836.1650716818831,
        "timestamp": "2025-12-18T13:51:49.964550+00:00",
        "meta_object_name": "FENGYUN 1C DEB",
        "meta_object_id": "1999-025BHC",
        "meta_epoch": "2025-12-17T23:59:25.368288",
        "meta_mean_motion": 14.12736469,
        "meta_eccentricity": 0.00155298,
        "meta_inclination": 98.6855,
        "meta_ra_of_asc_node": 0.4964,
        "meta_arg_of_pericenter": 145.0498,
        "meta_mean_anomaly": 244.898,
        "meta_ephemeris_type": 0,
        "meta_classification_type": "U",
        "meta_norad_cat_id": 31150,
        "meta_element_set_no": 999,
        "meta_rev_at_epoch": 96371,
        "meta_bstar": 0.00013187463,
        "meta_mean_motion_dot": 2.02e-06,
        "meta_mean_motion_ddot": 0,
        "tle_line1": "1 31150U 99025BHC 25351.99959917  .00000202  00000+0  13187-3 0  9995",
        "tle_line2": "2 31150  98.6855   0.4964 0015529 145.0498 244.8980 14.12736469963713"
      },
      "geometry": {
        "type": "Point",
        "coordinates": [
          -76.50780525277663,
          81.10360198953293
        ]
      }
    }
  ]
}